[{"OBJECT_NAME":"STARLINK-36112","OBJECT_ID":"2025-286V","EPOCH":"2026-03-09T22:49:02.977824","MEAN_MOTION":15.30219241,"ECCENTRICITY":0.00013596,"INCLINATION":53.1609,"RA_OF_ASC_NODE":357.4539,"ARG_OF_PERICENTER":40.369,"MEAN_ANOMALY":319.7412,"EPHEMERIS_TYPE":0,"CLASSIFICATION_TYPE":"U","NORAD_CAT_ID":66944,"ELEMENT_SET_NO":999,"REV_AT_EPOCH":1545,"BSTAR":0.0011443275,"MEAN_MOTION_DOT":0.00033707,"MEAN_MOTION_DDOT":0},{"OBJECT_NAME":"ARC-1","OBJECT_ID":"2015-058F","EPOCH":"2026-03-09T11:16:24.767040","MEAN_MOTION":15.39473048,"ECCENTRICITY":0.00404032,"INCLINATION":64.7636,"RA_OF_ASC_NODE":93.5186,"ARG_OF_PERICENTER":65.9865,"MEAN_ANOMALY":294.5492,"EPHEMERIS_TYPE":0,"CLASSIFICATION_TYPE":"U","NORAD_CAT_ID":40969,"ELEMENT_SET_NO":999,"REV_AT_EPOCH":10163,"BSTAR":0.0010773685,"MEAN_MOTION_DOT":0.00043725,"MEAN_MOTION_DDOT":0}]
